NORAD_CAT_ID,OBJECT_NAME,OBJECT_TYPE,EPOCH,MEAN_MOTION,ECCENTRICITY,INCLINATION,RA_OF_ASC_NODE,ARG_OF_PERICENTER,MEAN_ANOMALY,BSTAR,MEAN_MOTION_DOT,MEAN_MOTION_DDOT,TLE_LINE0,TLE_LINE1,TLE_LINE2,SEMIMAJOR_AXIS,PERIOD,APOGEE,PERIGEE,DECAYED
53024.0,STARLINK-4289,PAYLOAD,2023-04-24 10:16:36,15.08856911,0.0001338,53.2172,118.9284,83.0246,277.0898,0.00010427,1.373e-05,0.0,0 STARLINK-4289,1 53024U 22076AQ  23114.42819696  .00001373  00000-0  10427-3 0  9998,2 53024  53.2172 118.9284 0001338  83.0246 277.0898 15.08856911 44909,6917.829,95.436,540.619,538.768,0.0
53024.0,STARLINK-4289,PAYLOAD,2023-04-25 08:32:01,15.08828415,0.0001384,53.2187,114.7637,91.3646,268.7505,0.00013287,1.827e-05,0.0,0 STARLINK-4289,1 53024U 22076AQ  23115.35556946  .00001827  00000-0  13287-3 0  9998,2 53024  53.2187 114.7637 0001384  91.3646 268.7505 15.08828415 44571,6917.916,95.438,540.738,538.823,0.0
53024.0,STARLINK-4289,PAYLOAD,2023-04-26 08:22:49,15.08817897,0.0001018,53.218,110.3058,93.2071,266.9038,4.8851e-05,4.89e-06,0.0,0 STARLINK-4289,1 53024U 22076AQ  23116.34917934  .00000489  00000-0  48851-4 0  9995,2 53024  53.2180 110.3058 0001018  93.2071 266.9038 15.08817897 44720,6917.948,95.439,540.517,539.109,0.0
53024.0,STARLINK-4289,PAYLOAD,2023-04-27 09:48:57,15.08857362,0.0001229,53.2177,105.5462,94.3481,265.7651,0.00012446,1.694e-05,0.0,0 STARLINK-4289,1 53024U 22076AQ  23117.40899451  .00001694  00000-0  12446-3 0  9995,2 53024  53.2177 105.5462 0001229  94.3481 265.7651 15.08857362 45351,6917.827,95.436,540.543,538.842,0.0
53024.0,STARLINK-4289,PAYLOAD,2023-04-28 04:53:36,15.08830304,9.48e-05,53.2168,101.9767,88.2398,271.8703,3.7372e-05,3.07e-06,0.0,0 STARLINK-4289,1 53024U 22076AQ  23118.20389752  .00000307  00000-0  37372-4 0  9998,2 53024  53.2168 101.9767 0000948  88.2398 271.8703 15.08830304 45471,6917.91,95.438,540.431,539.119,0.0
53024.0,STARLINK-4289,PAYLOAD,2023-04-28 06:28:59,15.08832116,9.62e-05,53.2173,101.6786,97.222,262.8882,2.4734e-05,1.06e-06,0.0,0 STARLINK-4289,1 53024U 22076AQ  23118.27013600  .00000106  00000-0  24734-4 0  9996,2 53024  53.2173 101.6786 0000962  97.2220 262.8882 15.08832116 45016,6917.904,95.438,540.435,539.104,0.0
53024.0,STARLINK-4289,PAYLOAD,2023-04-29 04:44:23,15.0884759,0.000113,53.218,97.5178,80.4105,279.7014,-8.251e-05,-1.601e-05,0.0,0 STARLINK-4289,1 53024U 22076AQ  23119.19749232 -.00001601  00000-0 -82510-4 0  9994,2 53024  53.2180  97.5178 0001130  80.4105 279.7014 15.08847590 45629,6917.857,95.437,540.504,538.94,0.0
53024.0,STARLINK-4289,PAYLOAD,2023-04-29 07:55:09,15.08850691,0.0001206,53.2176,96.9227,79.8099,280.3029,-5.3475e-05,-1.139e-05,0.0,0 STARLINK-4289,1 53024U 22076AQ  23119.32996886 -.00001139  00000-0 -53475-4 0  9992,2 53024  53.2176  96.9227 0001206  79.8099 280.3029 15.08850691 45170,6917.848,95.437,540.547,538.878,0.0
53024.0,STARLINK-4289,PAYLOAD,2023-04-30 07:45:56,15.0883783,0.0001213,53.2171,92.4622,81.4249,278.6881,0.00011134,1.484e-05,0.0,0 STARLINK-4289,1 53024U 22076AQ  23120.32357173  .00001484  00000-0  11134-3 0  9990,2 53024  53.2171  92.4622 0001213  81.4249 278.6881 15.08837830 45793,6917.887,95.438,540.591,538.913,0.0
53024.0,STARLINK-4289,PAYLOAD,2023-05-01 04:25:58,15.08834454,0.000121,53.2175,88.596,85.5261,274.5869,-4.1228e-05,-9.44e-06,0.0,0 STARLINK-4289,1 53024U 22076AQ  23121.18470201 -.00000944  00000-0 -41228-4 0  9993,2 53024  53.2175  88.5960 0001210  85.5261 274.5869 15.08834454 45929,6917.897,95.438,540.599,538.925,0.0
53024.0,STARLINK-4289,PAYLOAD,2023-05-01 07:36:44,15.08834661,0.0001208,53.2175,88.0014,85.9929,274.1201,-3.8029e-05,-8.93e-06,0.0,0 STARLINK-4289,1 53024U 22076AQ  23121.31718208 -.00000893  00000-0 -38029-4 0  9998,2 53024  53.2175  88.0014 0001208  85.9929 274.1201 15.08834661 45472,6917.897,95.438,540.597,538.926,0.0
53024.0,STARLINK-4289,PAYLOAD,2023-05-02 04:16:44,15.08832257,0.0001074,53.2182,84.1364,93.8746,266.2369,0.00024857,3.67e-05,0.0,0 STARLINK-4289,1 53024U 22076AQ  23122.17829338  .00003670  00000-0  24857-3 0  9997,2 53024  53.2182  84.1364 0001074  93.8746 266.2369 15.08832257 46074,6917.904,95.438,540.512,539.026,0.0
53024.0,STARLINK-4289,PAYLOAD,2023-05-02 07:27:31,15.08812926,0.0001334,53.2185,83.5415,96.4835,263.6309,0.00058185,8.978e-05,0.0,0 STARLINK-4289,1 53024U 22076AQ  23122.31077563  .00008978  00000-0  58185-3 0  9995,2 53024  53.2185  83.5415 0001334  96.4835 263.6309 15.08812926 46092,6917.963,95.439,540.751,538.905,0.0
53024.0,STARLINK-4289,PAYLOAD,2023-05-02 21:45:59,15.0883685,0.0001244,53.2176,80.8655,94.8572,265.2562,5.5712e-05,5.99e-06,0.0,0 STARLINK-4289,1 53024U 22076AQ  23122.90693924  .00000599  00000-0  55712-4 0  9990,2 53024  53.2176  80.8655 0001244  94.8572 265.2562 15.08836850 45717,6917.89,95.438,540.616,538.894,0.0
53024.0,STARLINK-4289,PAYLOAD,2023-05-03 04:07:31,15.08840274,0.0001172,53.2181,79.6776,88.2182,271.8945,8.9811e-05,1.142e-05,0.0,0 STARLINK-4289,1 53024U 22076AQ  23123.17189713  .00001142  00000-0  89811-4 0  9998,2 53024  53.2181  79.6776 0001172  88.2182 271.8945 15.08840274 46227,6917.88,95.438,540.555,538.934,0.0
53024.0,STARLINK-4289,PAYLOAD,2023-05-03 07:18:18,15.0884223,0.0001141,53.2179,79.082,90.228,269.8842,0.0001112,1.482e-05,0.0,0 STARLINK-4289,1 53024U 22076AQ  23123.30437579  .00001482  00000-0  11120-3 0  9993,2 53024  53.2179  79.0820 0001141  90.2280 269.8842 15.08842230 45772,6917.874,95.437,540.528,538.949,0.0
53024.0,STARLINK-4289,PAYLOAD,2023-05-04 00:47:33,15.08836343,0.0001069,53.2178,75.8108,90.1889,269.9226,-0.00012122,-2.216e-05,0.0,0 STARLINK-4289,1 53024U 22076AQ  23124.03302846 -.00002216  00000-0 -12122-3 0  9993,2 53024  53.2178  75.8108 0001069  90.1889 269.9226 15.08836343 46357,6917.892,95.438,540.496,539.017,0.0
53024.0,STARLINK-4289,PAYLOAD,2023-05-04 05:33:42,15.08844661,0.00012,53.2184,74.9193,113.2024,246.9094,-0.00011806,-2.167e-05,0.0,0 STARLINK-4289,1 53024U 22076AQ  23124.23174346 -.00002167  00000-0 -11806-3 0  9990,2 53024  53.2184  74.9193 0001200 113.2024 246.9094 15.08844661 46386,6917.866,95.437,540.561,538.901,0.0
53024.0,STARLINK-4289,PAYLOAD,2023-05-04 21:27:34,15.0883938,0.0001105,53.2184,71.9455,86.7073,273.4046,3.9096e-05,3.34e-06,0.0,0 STARLINK-4289,1 53024U 22076AQ  23124.89414409  .00000334  00000-0  39096-4 0  9993,2 53024  53.2184  71.9455 0001105  86.7073 273.4046 15.08839380 46010,6917.882,95.438,540.512,538.983,0.0
53024.0,STARLINK-4289,PAYLOAD,2023-05-05 05:24:29,15.08849336,0.0001079,53.2175,70.4578,86.4633,273.6482,0.00012665,1.729e-05,0.0,0 STARLINK-4289,1 53024U 22076AQ  23125.22533574  .00001729  00000-0  12665-3 0  9997,2 53024  53.2175  70.4578 0001079  86.4633 273.6482 15.08849336 46534,6917.852,95.437,540.463,538.97,0.0
53024.0,STARLINK-4289,PAYLOAD,2023-05-05 21:18:21,15.08838644,0.0001164,53.2177,67.4844,84.6162,275.4963,9.6515e-05,1.248e-05,0.0,0 STARLINK-4289,1 53024U 22076AQ  23125.88774593  .00001248  00000-0  96515-4 0  9990,2 53024  53.2177  67.4844 0001164  84.6162 275.4963 15.08838644 46163,6917.885,95.438,540.555,538.944,0.0
53024.0,STARLINK-4289,PAYLOAD,2023-05-06 03:39:53,15.0884446,0.0001092,53.2178,66.2952,102.8143,257.2971,0.00014374,2.001e-05,0.0,0 STARLINK-4289,1 53024U 22076AQ  23126.15270177  .00002001  00000-0  14374-3 0  9990,2 53024  53.2178  66.2952 0001092 102.8143 257.2971 15.08844460 46679,6917.867,95.437,540.487,538.976,0.0
53024.0,STARLINK-4289,PAYLOAD,2023-05-07 05:06:03,15.08852866,0.0001067,53.218,61.537,93.4145,266.697,0.00010049,1.312e-05,0.0,0 STARLINK-4289,1 53024U 22076AQ  23127.21253762  .00001312  00000-0  10049-3 0  9998,2 53024  53.2180  61.5370 0001067  93.4145 266.6970 15.08852866 46833,6917.841,95.437,540.444,538.968,0.0
53024.0,STARLINK-4289,PAYLOAD,2023-05-08 01:46:05,15.08835103,0.0001185,53.218,57.6723,95.2388,264.8739,1.6719e-05,-2.2e-07,0.0,0 STARLINK-4289,1 53024U 22076AQ  23128.07367370 -.00000022  00000-0  16719-4 0  9993,2 53024  53.2180  57.6723 0001185  95.2388 264.8739 15.08835103 46963,6917.895,95.438,540.58,538.941,0.0
53024.0,STARLINK-4289,PAYLOAD,2023-05-08 06:32:14,15.08841425,0.0001284,53.2188,56.7794,98.3573,261.7564,5.98e-05,6.64e-06,0.0,0 STARLINK-4289,1 53024U 22076AQ  23128.27238856  .00000664  00000-0  59800-4 0  9990,2 53024  53.2188  56.7794 0001284  98.3573 261.7564 15.08841425 46998,6917.876,95.437,540.629,538.853,0.0
53024.0,STARLINK-4289,PAYLOAD,2023-05-08 22:26:05,15.0884799,0.0001168,53.2183,53.8062,90.7139,269.3987,8.9957e-05,1.144e-05,0.0,0 STARLINK-4289,1 53024U 22076AQ  23128.93478566  .00001144  00000-0  89957-4 0  9997,2 53024  53.2183  53.8062 0001168  90.7139 269.3987 15.08847990 46620,6917.856,95.437,540.529,538.913,0.0
53024.0,STARLINK-4289,PAYLOAD,2023-05-09 01:36:51,15.08849856,0.000135,53.2179,53.2119,79.374,280.7404,0.00018376,2.639e-05,0.0,0 STARLINK-4289,1 53024U 22076AQ  23129.06726565  .00002639  00000-0  18376-3 0  9993,2 53024  53.2179  53.2119 0001350  79.3740 280.7404 15.08849856 46642,6917.85,95.437,540.649,538.781,0.0
53024.0,STARLINK-4289,PAYLOAD,2023-05-09 23:52:16,15.08828209,0.0001536,53.2174,49.0494,105.0833,255.0329,0.00060099,9.287e-05,0.0,0 STARLINK-4289,1 53024U 22076AQ  23129.99463560  .00009287  00000-0  60099-3 0  9993,2 53024  53.2174  49.0494 0001536 105.0833 255.0329 15.08828209 46787,6917.916,95.438,540.844,538.719,0.0
53024.0,STARLINK-4289,PAYLOAD,2023-05-11 01:18:25,15.08844871,0.0001249,53.2183,44.2967,97.4663,262.6471,-2.3199e-05,-6.57e-06,0.0,0 STARLINK-4289,1 53024U 22076AQ  23131.05446560 -.00000657  00000-0 -23199-4 0  9999,2 53024  53.2183  44.2967 0001249  97.4663 262.6471 15.08844871 46948,6917.866,95.437,540.595,538.866,0.0
53024.0,STARLINK-4289,PAYLOAD,2023-05-12 01:09:13,15.08832843,0.0001186,53.2169,39.8267,82.5615,277.5512,4.0524e-05,3.57e-06,0.0,0 STARLINK-4289,1 53024U 22076AQ  23132.04807765  .00000357  00000-0  40524-4 0  9993,2 53024  53.2169  39.8267 0001186  82.5615 277.5512 15.08832843 47563,6917.902,95.438,540.588,538.947,0.0
